IRIDIUM 63              
1 25286U 98021B   25179.81196647  .00000241  00000+0  75434-4 0  9992
2 25286  86.3968  77.2560 0002037  87.2333 272.9097 14.36552766425787
IRIDIUM 69              
1 25319U 98026A   25179.16397692  .00000320  00000+0  93615-4 0  9994
2 25319  86.3968  90.7855 0003056  34.3920 325.7477 14.40976519424642
IRIDIUM 71              
1 25320U 98026B   25179.16937065  .00000313  00000+0  90895-4 0  9999
2 25320  86.3964  85.4716 0004131  67.8316 292.3322 14.41165519425170
IRIDIUM 73              
1 25344U 98032C   25179.57285594  .00000320  00000+0  74517-4 0  9991
2 25344  86.4403  41.9804 0001846  71.7943 288.3464 14.51724534432214
IRIDIUM 82              
1 25467U 98051A   25179.84593001  .00012975  00000+0  36837-3 0  9994
2 25467  86.3671 104.0044 0081074 251.5151 107.7276 15.32733932425740
